KUIPER-00165            
1 65778U 25217S   25300.18610611  .00039721  00000+0  10915-2 0  9993
2 65778  51.8712 289.4851 0005148 170.2469 189.8618 15.36817662  4889
KUIPER-00166            
1 65779U 25217T   25300.17976666  .00037237  00000+0  10142-2 0  9990
2 65779  51.8721 289.4458 0002696 147.1579 212.9575 15.37130963  4886
KUIPER-00167            
1 65780U 25217U   25300.13710337  .00028999  00000+0  82182-3 0  9998
2 65780  51.8686 289.9008 0005362 208.3298 151.7397 15.36010785  4874
KUIPER-00168            
1 65781U 25217V   25300.16599845  .00037983  00000+0  10142-2 0  9990
2 65781  51.8747 289.3579 0003274  80.3888 279.7468 15.37736600  4886
KUIPER-00169            
1 65782U 25217W   25300.18176876  .00036091  00000+0  98677-3 0  9997
2 65782  51.8717 289.4597 0002618 166.1002 194.0057 15.37027384  4882
KUIPER-00170            
1 65783U 25217X   25299.94001323  .00039845  00000+0  11223-2 0  9994
2 65783  51.8672 290.8292 0004978 199.2691 160.8107 15.36045930  4842
KUIPER-00171            
1 65784U 25217Y   25300.16668980  .00078158  00000+0  17601-2 0  9996
2 65784  51.8693 289.4633 0005979 189.2587 120.5742 15.42573750  5004
KUIPER-00172            
1 65785U 25217Z   25300.17317580  .00032973  00000+0  89074-3 0  9994
2 65785  51.8732 289.4035 0002454 131.9231 228.1965 15.37445004  4881
KUIPER-00173            
1 65786U 25217AA  25299.98272308  .00039709  00000+0  10774-2 0  9993
2 65786  51.8719 290.3773 0002848 139.8622 220.2576 15.37220503  4858
KUIPER-00174            
1 65787U 25217AB  25300.16820316  .00056963  00000+0  15168-2 0  9998
2 65787  51.8722 289.3692 0003146 101.5165 258.6175 15.37636760  4880
KUIPER-00176            
1 65788U 25217AC  25300.17300156  .00034792  00000+0  94016-3 0  9991
2 65788  51.8725 289.4031 0002198 101.9967 258.1266 15.37409341  4881
KUIPER-00101            
1 65947U 25228A   25300.10381716  .00029542  00000+0  87567-3 0  9994
2 65947  51.8801 245.2291 0005890 181.2024 178.8948 15.34587263  3250
KUIPER-00113            
1 65948U 25228B   25300.16675069  .00016541  00000+0  49223-3 0  9990
2 65948  51.8803 244.9035 0006303 177.7708 182.3307 15.34830203  3269
KUIPER-00117            
1 65949U 25228C   25300.16710326  .00016196  00000+0  48293-3 0  9999
2 65949  51.8803 244.9055 0006111 178.0773 182.0237 15.34786133  3266
KUIPER-00121            
1 65950U 25228D   25300.10717485  .00029707  00000+0  89094-3 0  9994
2 65950  51.8814 245.2560 0005702 196.2535 163.8268 15.34214970  3253
KUIPER-00122            
1 65951U 25228E   25300.10816164  .00024138  00000+0  72994-3 0  9993
2 65951  51.8804 245.2577 0005852 203.7554 156.3162 15.34067062  3250
KUIPER-00123            
1 65952U 25228F   25300.10727703  .00028935  00000+0  87018-3 0  9996
2 65952  51.8801 245.2498 0005492 191.4177 168.6685 15.34143478  3256
KUIPER-00124            
1 65953U 25228G   25300.10857588  .00026508  00000+0  80105-3 0  9996
2 65953  51.8812 245.2630 0005580 206.2997 153.7706 15.34036739  3250
KUIPER-00125            
1 65954U 25228H   25300.10503008  .00031155  00000+0  92684-3 0  9991
2 65954  51.8799 245.2356 0005747 186.9999 173.0907 15.34446150  3251
KUIPER-00126            
1 65955U 25228J   25300.10770152  .00029055  00000+0  87274-3 0  9993
2 65955  51.8807 245.2556 0006086 201.1709 158.9025 15.34175977  3259
KUIPER-00127            
1 65956U 25228K   25300.16739068  .00029126  00000+0  85878-3 0  9998
2 65956  51.8806 244.9081 0005977 179.2147 180.8849 15.34761526  3267
KUIPER-00128            
1 65957U 25228L   25300.10416758  .00026045  00000+0  77476-3 0  9993
2 65957  51.8808 245.2358 0005808 182.4806 177.6152 15.34544398  3258
KUIPER-00129            
1 65958U 25228M   25300.10378537  .00026943  00000+0  80068-3 0  9994
2 65958  51.8808 245.2332 0005925 177.2066 182.8954 15.34555755  3258
KUIPER-00130            
1 65959U 25228N   25300.10593701  .00029083  00000+0  86824-3 0  9991
2 65959  51.8803 245.2414 0005275 193.4064 166.6782 15.34372837  3258
KUIPER-00134            
1 65960U 25228P   25300.10679017  .00028504  00000+0  85432-3 0  9999
2 65960  51.8800 245.2464 0005319 197.7583 162.3217 15.34259195  3251
KUIPER-00135            
1 65961U 25228Q   25300.10638470  .00029989  00000+0  89828-3 0  9999
2 65961  51.8813 245.2515 0005243 185.3502 174.7429 15.34252300  3256
KUIPER-00136            
1 65962U 25228R   25300.16799267  .00028757  00000+0  85001-3 0  9999
2 65962  51.8808 244.9139 0005733 181.7005 178.3962 15.34691562  3261
KUIPER-00137            
1 65963U 25228S   25300.10601127  .00027321  00000+0  81733-3 0  9995
2 65963  51.8812 245.2488 0005280 192.7064 167.3789 15.34341150  3251
KUIPER-00138            
1 65964U 25228T   25300.10745007  .00026324  00000+0  79293-3 0  9992
2 65964  51.8803 245.2524 0005915 204.4721 155.5984 15.34141695  3257
KUIPER-00140            
1 65965U 25228U   25300.10814206  .00026984  00000+0  81334-3 0  9992
2 65965  51.8810 245.2599 0005638 205.6295 154.4411 15.34109082  3256
KUIPER-00141            
1 65966U 25228V   25300.10448344  .00029267  00000+0  86986-3 0  9994
2 65966  51.8801 245.2328 0005758 183.6939 176.4005 15.34508078  3251
KUIPER-00146            
1 65967U 25228W   25300.10477731  .00026742  00000+0  79693-3 0  9999
2 65967  51.8811 245.2408 0005725 185.5128 174.5796 15.34472549  3256
KUIPER-00149            
1 65968U 25228X   25300.10318920  .00027049  00000+0  80142-3 0  9996
2 65968  51.8804 245.2249 0005649 181.7875 178.3091 15.34650432  3253
KUIPER-00154            
1 65969U 25228Y   25300.16771483  .00016434  00000+0  49100-3 0  9995
2 65969  51.8802 244.9077 0005867 180.0801 180.0185 15.34711848  3264
KUIPER-00157            
1 65970U 25228Z   25300.10687954  .00026818  00000+0  80426-3 0  9993
2 65970  51.8813 245.2538 0005799 197.7411 162.3373 15.34271469  3251
